NOAA 15                 
1 25338U 98030A   23361.62127223  .00000317  00000+0  14971-3 0  9996
2 25338  98.5875  27.2034 0011371 107.6505 252.5918 14.26461443332588
NOAA 18                 
1 28654U 05018A   23361.51930121  .00000359  00000+0  21578-3 0  9998
2 28654  98.8931  74.8181 0014254 188.9680 171.1239 14.13087384958780
NOAA 19                 
1 33591U 09005A   23361.58868156  .00000329  00000+0  20126-3 0  9994
2 33591  99.0744  50.3646 0014607  61.0985 299.1649 14.12894807766998
METOP-B                 
1 38771U 12049A   23361.58099808  .00000273  00000+0  14483-3 0  9998
2 38771  98.6544  57.4675 0001416 123.2910 236.8403 14.21444642585037
SARAL                   
1 39086U 13009A   23361.60991563  .00000256  00000+0  11090-3 0  9999
2 39086  98.5451 184.1335 0002956  80.2156 279.9362 14.32318767566376
METOP-C                 
1 43689U 18087A   23361.61915453  .00000268  00000+0  14235-3 0  9996
2 43689  98.7064  58.2263 0002230 192.3182 167.7941 14.21485916266601
ANGELS                  
1 44876U 19092D   23361.49771563  .00007535  00000+0  31379-3 0  9992
2 44876  97.4723 185.2022 0009733 201.7039 158.3787 15.23981766223034
GAZELLE                 
1 54023U 22127A   23361.55524360  .00000332  00000+0  11417-3 0  9997
2 54023  98.3339 354.7836 0014121  36.8280 323.3877 14.41966736 64249
EOS-6 (OCEANSAT-3)      
1 54361U 22158A   23361.55958138  .00000731  00000+0  21307-3 0  9992
2 54361  98.3541  95.9530 0001109  99.0850 261.0467 14.47000647 57308
